[{"OBJECT_NAME":"STARLINK-32264","OBJECT_ID":"2024-191X","EPOCH":"2026-03-09T22:00:01.999584","MEAN_MOTION":15.32024028,"ECCENTRICITY":0.00040062,"INCLINATION":42.9989,"RA_OF_ASC_NODE":156.3486,"ARG_OF_PERICENTER":35.4785,"MEAN_ANOMALY":15.2929,"EPHEMERIS_TYPE":0,"CLASSIFICATION_TYPE":"U","NORAD_CAT_ID":61642,"ELEMENT_SET_NO":999,"REV_AT_EPOCH":585,"BSTAR":0.0023821033,"MEAN_MOTION_DOT":0.00075714,"MEAN_MOTION_DDOT":0},{"OBJECT_NAME":"KUIPER-00223","OBJECT_ID":"2026-030V","EPOCH":"2026-03-09T17:18:46.022400","MEAN_MOTION":15.34146211,"ECCENTRICITY":0.00128242,"INCLINATION":51.8827,"RA_OF_ASC_NODE":219.2782,"ARG_OF_PERICENTER":59.0052,"MEAN_ANOMALY":301.2192,"EPHEMERIS_TYPE":0,"CLASSIFICATION_TYPE":"U","NORAD_CAT_ID":67783,"ELEMENT_SET_NO":999,"REV_AT_EPOCH":509,"BSTAR":0.00090645373,"MEAN_MOTION_DOT":0.00030225,"MEAN_MOTION_DDOT":0}]
